NORAD_CAT_ID,OBJECT_NAME,OBJECT_TYPE,EPOCH,MEAN_MOTION,ECCENTRICITY,INCLINATION,RA_OF_ASC_NODE,ARG_OF_PERICENTER,MEAN_ANOMALY,BSTAR,MEAN_MOTION_DOT,MEAN_MOTION_DDOT,TLE_LINE0,TLE_LINE1,TLE_LINE2,SEMIMAJOR_AXIS,PERIOD,APOGEE,PERIGEE,DECAYED
56470.0,STARLINK-5523,PAYLOAD,2024-02-20 11:56:28,14.98330002,0.0003008,70.0002,211.0633,268.5633,91.5181,-3.0768e-05,-4.6e-06,0.0,0 STARLINK-5523,1 56470U 23064Y   24051.49754849 -.00000460  00000-0 -30768-4 0  9999,2 56470  70.0002 211.0633 0003008 268.5633  91.5181 14.98330002 44028,6950.193,96.107,574.149,569.967,0.0
56470.0,STARLINK-5523,PAYLOAD,2024-02-20 13:32:36,14.98330465,0.0002969,70.0004,210.8956,268.1466,91.9353,-2.8121e-05,-4.29e-06,0.0,0 STARLINK-5523,1 56470U 23064Y   24051.56430821 -.00000429  00000-0 -28121-4 0  9993,2 56470  70.0004 210.8956 0002969 268.1466  91.9353 14.98330465 43678,6950.191,96.107,574.12,569.993,0.0
56470.0,STARLINK-5523,PAYLOAD,2024-02-20 19:57:08,14.98331307,0.0002891,70.0005,210.2223,266.3936,93.6892,-7.5166e-06,-1.83e-06,0.0,0 STARLINK-5523,1 56470U 23064Y   24051.83134705 -.00000183  00000-0 -75166-5 0  9994,2 56470  70.0005 210.2223 0002891 266.3936  93.6892 14.98331307 43714,6950.189,96.107,574.063,570.045,0.0
56470.0,STARLINK-5523,PAYLOAD,2024-02-21 11:58:28,14.98327548,0.000307,70.0,208.5384,270.6142,89.4666,8.4575e-05,9.16e-06,0.0,0 STARLINK-5523,1 56470U 23064Y   24052.49894649  .00000916  00000-0  84575-4 0  9992,2 56470  70.0000 208.5384 0003070 270.6142  89.4666 14.98327548 44179,6950.2,96.107,574.199,569.932,0.0
56470.0,STARLINK-5523,PAYLOAD,2024-02-21 13:34:37,14.983276,0.0003072,70.0,208.3701,270.6254,89.4553,8.2814e-05,8.95e-06,0.0,0 STARLINK-5523,1 56470U 23064Y   24052.56570653  .00000895  00000-0  82814-4 0  9996,2 56470  70.0000 208.3701 0003072 270.6254  89.4553 14.98327600 43821,6950.2,96.107,574.2,569.93,0.0
56470.0,STARLINK-5523,PAYLOAD,2024-02-21 19:59:09,14.98331689,0.0003084,70.0001,207.6972,271.3333,88.7472,8.8303e-05,9.61e-06,0.0,0 STARLINK-5523,1 56470U 23064Y   24052.83274389  .00000961  00000-0  88303-4 0  9996,2 56470  70.0001 207.6972 0003084 271.3333  88.7472 14.98331689 43861,6950.188,96.107,574.196,569.909,0.0
56470.0,STARLINK-5523,PAYLOAD,2024-02-22 12:00:29,14.98331714,0.0003059,70.0003,206.0138,271.0505,89.0304,3.6355e-06,-5e-07,0.0,0 STARLINK-5523,1 56470U 23064Y   24053.50034548 -.00000050  00000-0  36355-5 0  9993,2 56470  70.0003 206.0138 0003059 271.0505  89.0304 14.98331714 44329,6950.188,96.107,574.179,569.927,0.0
56470.0,STARLINK-5523,PAYLOAD,2024-02-22 13:36:37,14.9833157,0.0003063,70.0002,205.8456,271.1324,88.9484,2.0853e-06,-6.8e-07,0.0,0 STARLINK-5523,1 56470U 23064Y   24053.56710551 -.00000068  00000-0  20853-5 0  9999,2 56470  70.0002 205.8456 0003063 271.1324  88.9484 14.98331570 43970,6950.188,96.107,574.182,569.924,0.0
56470.0,STARLINK-5523,PAYLOAD,2024-02-22 20:01:09,14.98334826,0.0003052,70.0002,205.1721,270.7747,89.3063,3.6316e-05,3.4e-06,0.0,0 STARLINK-5523,1 56470U 23064Y   24053.83414181  .00000340  00000-0  36316-4 0  9991,2 56470  70.0002 205.1721 0003052 270.7747  89.3063 14.98334826 44011,6950.178,96.107,574.164,569.922,0.0
56470.0,STARLINK-5523,PAYLOAD,2024-02-23 12:02:30,14.98330726,0.0002967,70.0006,203.4889,271.1629,88.919,-3.6616e-05,-5.3e-06,0.0,0 STARLINK-5523,1 56470U 23064Y   24054.50174544 -.00000530  00000-0 -36616-4 0  9998,2 56470  70.0006 203.4889 0002967 271.1629  88.9190 14.98330726 44470,6950.191,96.107,574.118,569.994,0.0
56470.0,STARLINK-5523,PAYLOAD,2024-02-23 13:38:38,14.98331006,0.0002965,70.0006,203.3206,271.1804,88.9015,-3.3e-05,-4.87e-06,0.0,0 STARLINK-5523,1 56470U 23064Y   24054.56850515 -.00000487  00000-0 -33000-4 0  9998,2 56470  70.0006 203.3206 0002965 271.1804  88.9015 14.98331006 44125,6950.19,96.107,574.116,569.994,0.0
56470.0,STARLINK-5523,PAYLOAD,2024-02-23 20:03:10,14.98332672,0.0002909,70.0008,202.6479,269.182,90.9006,-7.037e-06,-1.77e-06,0.0,0 STARLINK-5523,1 56470U 23064Y   24054.83554289 -.00000177  00000-0 -70370-5 0  9995,2 56470  70.0008 202.6479 0002909 269.1820  90.9006 14.98332672 44161,6950.185,96.107,574.071,570.028,0.0
56470.0,STARLINK-5523,PAYLOAD,2024-02-24 12:04:31,14.98328456,0.0002856,70.0009,200.9648,269.5231,90.56,-3.1562e-05,-4.7e-06,0.0,0 STARLINK-5523,1 56470U 23064Y   24055.50314564 -.00000470  00000-0 -31562-4 0  9995,2 56470  70.0009 200.9648 0002856 269.5231  90.5600 14.98328456 44624,6950.198,96.107,574.048,570.078,0.0
56470.0,STARLINK-5523,PAYLOAD,2024-02-24 13:40:39,14.98328552,0.0002855,70.0009,200.7965,269.5402,90.543,-2.9593e-05,-4.46e-06,0.0,0 STARLINK-5523,1 56470U 23064Y   24055.56990558 -.00000446  00000-0 -29593-4 0  9998,2 56470  70.0009 200.7965 0002855 269.5402  90.5430 14.98328552 44272,6950.197,96.107,574.047,570.078,0.0
56470.0,STARLINK-5523,PAYLOAD,2024-02-25 12:06:32,14.98331069,0.0002762,70.0014,198.4417,260.6589,99.4258,1.5804e-05,9.6e-07,0.0,0 STARLINK-5523,1 56470U 23064Y   24056.50454186  .00000096  00000-0  15804-4 0  9994,2 56470  70.0014 198.4417 0002762 260.6589  99.4258 14.98331069 44776,6950.19,96.107,573.974,570.135,0.0
56470.0,STARLINK-5523,PAYLOAD,2024-02-25 15:18:48,14.98332127,0.000289,70.0009,198.1035,267.8288,92.254,1.9747e-05,1.43e-06,0.0,0 STARLINK-5523,1 56470U 23064Y   24056.63806131  .00000143  00000-0  19747-4 0  9992,2 56470  70.0009 198.1035 0002890 267.8288  92.2540 14.98332127 44434,6950.186,96.107,574.06,570.043,0.0
56470.0,STARLINK-5523,PAYLOAD,2024-02-25 18:31:04,14.98334205,0.0002886,70.0009,197.7667,269.4585,90.6243,4.2711e-05,4.17e-06,0.0,0 STARLINK-5523,1 56470U 23064Y   24056.77157918  .00000417  00000-0  42711-4 0  9990,2 56470  70.0009 197.7667 0002886 269.4585  90.6243 14.98334205 44456,6950.18,96.107,574.051,570.039,0.0
56470.0,STARLINK-5523,PAYLOAD,2024-02-26 12:08:33,14.98327148,0.0002828,70.0009,195.9156,269.8986,90.1849,-9.8044e-06,-2.1e-06,0.0,0 STARLINK-5523,1 56470U 23064Y   24057.50594465 -.00000210  00000-0 -98044-5 0  9998,2 56470  70.0009 195.9156 0002828 269.8986  90.1849 14.98327148 44921,6950.202,96.107,574.032,570.101,0.0
56470.0,STARLINK-5523,PAYLOAD,2024-02-26 13:44:41,14.98326669,0.0002841,70.001,195.7472,269.8922,90.1911,-1.3882e-05,-2.59e-06,0.0,0 STARLINK-5523,1 56470U 23064Y   24057.57270514 -.00000259  00000-0 -13882-4 0  9990,2 56470  70.0010 195.7472 0002841 269.8922  90.1911 14.98326669 44575,6950.203,96.107,574.043,570.094,0.0
56470.0,STARLINK-5523,PAYLOAD,2024-02-26 18:33:05,14.9832768,0.000286,70.0008,195.2421,269.8851,90.198,-2.7847e-06,-1.26e-06,0.0,0 STARLINK-5523,1 56470U 23064Y   24057.77298447 -.00000126  00000-0 -27847-5 0  9997,2 56470  70.0008 195.2421 0002860 269.8851  90.1980 14.98327680 44607,6950.2,96.107,574.053,570.077,0.0
56470.0,STARLINK-5523,PAYLOAD,2024-02-27 12:10:34,14.98327524,0.0002906,70.0007,193.3904,269.9598,90.1228,-6.9298e-05,-9.2e-06,0.0,0 STARLINK-5523,1 56470U 23064Y   24058.50734720 -.00000920  00000-0 -69298-4 0  9995,2 56470  70.0007 193.3904 0002906 269.9598  90.1228 14.98327524 45075,6950.201,96.107,574.085,570.046,0.0
56470.0,STARLINK-5523,PAYLOAD,2024-02-27 15:22:50,14.98328804,0.0002908,70.0008,193.0539,270.4617,89.6209,-5.3136e-05,-7.27e-06,0.0,0 STARLINK-5523,1 56470U 23064Y   24058.64086612 -.00000727  00000-0 -53136-4 0  9999,2 56470  70.0008 193.0539 0002908 270.4617  89.6209 14.98328804 44734,6950.197,96.107,574.083,570.04,0.0
56470.0,STARLINK-5523,PAYLOAD,2024-02-27 18:35:07,14.98328371,0.0002914,70.0009,192.7173,270.45,89.6325,-5.4043e-05,-7.38e-06,0.0,0 STARLINK-5523,1 56470U 23064Y   24058.77438661 -.00000738  00000-0 -54043-4 0  9998,2 56470  70.0009 192.7173 0002914 270.4500  89.6325 14.98328371 44753,6950.198,96.107,574.088,570.038,0.0
56470.0,STARLINK-5523,PAYLOAD,2024-02-28 12:12:35,14.98323495,0.0003039,70.0007,190.8644,270.2998,89.7813,2.9641e-05,2.61e-06,0.0,0 STARLINK-5523,1 56470U 23064Y   24059.50874860  .00000261  00000-0  29641-4 0  9990,2 56470  70.0007 190.8644 0003039 270.2998  89.7813 14.98323495 45229,6950.213,96.107,574.19,569.966,0.0
56470.0,STARLINK-5523,PAYLOAD,2024-02-28 13:48:43,14.98324233,0.0003015,70.0007,190.6961,270.452,89.6293,1.9753e-05,1.43e-06,0.0,0 STARLINK-5523,1 56470U 23064Y   24059.57550866  .00000143  00000-0  19753-4 0  9996,2 56470  70.0007 190.6961 0003015 270.4520  89.6293 14.98324233 44878,6950.211,96.107,574.171,569.98,0.0
56470.0,STARLINK-5523,PAYLOAD,2024-02-28 18:37:08,14.98309695,0.0002869,70.0009,190.1912,269.2364,90.8467,0.00032839,3.825e-05,0.0,0 STARLINK-5523,1 56470U 23064Y   24059.77579095  .00003825  00000-0  32839-3 0  9992,2 56470  70.0009 190.1912 0002869 269.2364  90.8467 14.98309695 44905,6950.256,96.108,574.115,570.127,0.0
56470.0,STARLINK-5523,PAYLOAD,2024-02-29 12:14:36,14.98332464,0.0003063,70.0007,188.3403,271.8602,88.2206,7.9072e-05,8.51e-06,0.0,0 STARLINK-5523,1 56470U 23064Y   24060.51014237  .00000851  00000-0  79072-4 0  9995,2 56470  70.0007 188.3403 0003063 271.8602  88.2206 14.98332464 45372,6950.185,96.107,574.179,569.921,0.0
56470.0,STARLINK-5523,PAYLOAD,2024-02-29 15:26:52,14.98334764,0.0002954,70.0008,188.0042,269.3013,90.7808,0.00011914,1.329e-05,0.0,0 STARLINK-5523,1 56470U 23064Y   24060.64365953  .00001329  00000-0  11914-3 0  9994,2 56470  70.0008 188.0042 0002954 269.3013  90.7808 14.98334764 45039,6950.178,96.107,574.096,569.99,0.0
56470.0,STARLINK-5523,PAYLOAD,2024-02-29 18:39:08,14.98336273,0.0003006,70.001,187.6676,271.0207,89.0608,0.00012078,1.349e-05,0.0,0 STARLINK-5523,1 56470U 23064Y   24060.77717815  .00001349  00000-0  12078-3 0  9990,2 56470  70.0010 187.6676 0003006 271.0207  89.0608 14.98336273 45052,6950.173,96.107,574.128,569.949,0.0
56470.0,STARLINK-5523,PAYLOAD,2024-03-01 12:16:37,14.98329269,0.0002813,70.0016,185.818,271.5969,88.4868,8.0835e-06,3e-08,0.0,0 STARLINK-5523,1 56470U 23064Y   24061.51154531  .00000003  00000-0  80835-5 0  9997,2 56470  70.0016 185.8180 0002813 271.5969  88.4868 14.98329269 45523,6950.195,96.107,574.015,570.105,0.0
